STARLINK-2351           
1 47891U 21021AH  23228.12297305  .00002912  00000+0  21424-3 0  9990
2 47891  53.0542 166.0290 0001191  67.0631 293.0484 15.06414800134411
STARLINK-2352           
1 47892U 21021AJ  23227.25001157  .00018585  00000+0  11310-2 0  9997
2 47892  53.0523 129.9283 0001062 102.1054 238.8436 15.10472907134857
STARLINK-2354           
1 47894U 21021AL  23227.08447865  .00010975  00000+0  75447-3 0  9997
2 47894  53.0534 160.6911 0001598  81.9951 278.1219 15.06402557134401
STARLINK-2355           
1 47895U 21021AM  23228.09073206  .00020330  00000+0  13787-2 0  9998
2 47895  53.0544 156.1744 0000989  81.0929 279.0172 15.06429148134544
STARLINK-2356           
1 47896U 21021AN  23228.08381553  .00018750  00000+0  12734-2 0  9999
2 47896  53.0533 171.2064 0001242 102.6897 257.4231 15.06425965134339
STARLINK-2357           
1 47897U 21021AP  23228.08978259  .00020980  00000+0  14218-2 0  9992
2 47897  53.0542 156.1782 0000964 100.5455 259.5642 15.06436286134546
STARLINK-2358           
1 47898U 21021AQ  23228.08335428  .00020324  00000+0  13783-2 0  9996
2 47898  53.0549 156.2069 0001198 106.1742 253.9378 15.06429333134554
STARLINK-2359           
1 47899U 21021AR  23227.99803381  .00003421  00000+0  24893-4 0  9999
2 47899  53.0392  84.1000 0000621 133.1530 226.9541 15.76721137135546
STARLINK-2360           
1 47900U 21021AS  23228.10452806  .00017472  00000+0  11881-2 0  9990
2 47900  53.0543 156.1152 0001064  79.5406 280.5703 15.06426101134554
STARLINK-2361           
1 47901U 21021AT  23228.06954069  .00018895  00000+0  12829-2 0  9997
2 47901  53.0540 146.3582 0001093 105.4717 254.6392 15.06430651134681
STARLINK-2362           
1 47902U 21021AU  23227.25679538  .00010833  00000+0  74490-3 0  9990
2 47902  53.0530 169.9175 0001333  93.2299 266.8842 15.06406623134278
STARLINK-2363           
1 47903U 21021AV  23227.08076654  .00015547  00000+0  10606-2 0  9997
2 47903  53.0549 150.6988 0001563 102.1372 257.9792 15.06389096134544
STARLINK-2364           
1 47904U 21021AW  23228.07321720  .00018144  00000+0  12329-2 0  9995
2 47904  53.0548 146.2549 0000964 106.4083 253.7012 15.06428399134693
STARLINK-2365           
1 47905U 21021AX  23227.07339415  .00018168  00000+0  12357-2 0  9992
2 47905  53.0547 150.7329 0001016 100.8691 259.2412 15.06392752134543
STARLINK-2367           
1 47907U 21021AZ  23228.07875096  .00018294  00000+0  12433-2 0  9990
2 47907  53.0527 166.2293 0001133  92.6601 267.4518 15.06415404134407
STARLINK-2368           
1 47908U 21021BA  23227.09091435  .00001820  00000+0  14103-3 0  9993
2 47908  53.0530 170.6642 0001120 120.6915 239.4185 15.06397101134261
STARLINK-2369           
1 47909U 21021BB  23228.10178522  .00019668  00000+0  13346-2 0  9996
2 47909  53.0542 156.1270 0001126 104.4507 255.6607 15.06427175134550
STARLINK-2370           
1 47910U 21021BC  23228.07135929  .00018165  00000+0  12343-2 0  9995
2 47910  53.0532 156.2620 0000972  76.2225 283.8872 15.06427893134556
STARLINK-2371           
1 47911U 21021BD  23228.08753140  .00014884  00000+0  10154-2 0  9990
2 47911  53.0536 171.4319 0001371 106.0220 254.0920 15.06420804134656
STARLINK-2372           
1 47912U 21021BE  23228.06399906  .00017534  00000+0  11929-2 0  9991
2 47912  53.0540 156.2860 0001013 104.2674 255.8427 15.06405518134533
STARLINK-2374           
1 47913U 21021BF  23228.13777902  .00018229  00000+0  12386-2 0  9996
2 47913  53.0540 166.4374 0001240 107.9844 252.1280 15.06427970134407
STARLINK-2375           
1 47914U 21021BG  23228.08980422  .00000466  00000+0  50172-4 0  9995
2 47914  53.0548 166.1765 0001245  88.9935 271.1197 15.06406041134405
STARLINK-2376           
1 47915U 21021BH  23228.08840245 -.00000425  00000+0 -96175-5 0  9995
2 47915  53.0555 161.1863 0001458  94.4691 265.6464 15.06425375134478
STARLINK-2378           
1 47916U 21021BJ  23228.06216635  .00020135  00000+0  13656-2 0  9992
2 47916  53.0540 146.3039 0000822  72.2898 287.8181 15.06431002134689
STARLINK-2397           
1 47917U 21021BK  23228.06860999  .00001405  00000+0  11315-3 0  9991
2 47917  53.0556 156.2767 0001534  99.6973 260.4190 15.06407727134542
STARLINK-2398           
1 47918U 21021BL  23227.21348669  .00017832  00000+0  12131-2 0  9990
2 47918  53.0537 160.1138 0001412  98.7450 261.3699 15.06395761134417
STARLINK-2405           
1 47919U 21021BM  23228.12666235  .00018260  00000+0  12406-2 0  9995
2 47919  53.0540 166.0155 0001203 108.2610 251.8510 15.06429660134398
STARLINK-2087           
1 47977U 21024A   23228.00272863  .00001514  00000+0  12050-3 0  9999
2 47977  53.0555 211.5687 0001356  94.4806 265.6338 15.06401839133002
STARLINK-1647           
1 47978U 21024B   23228.02391293 -.00004366  00000+0 -27442-3 0  9992
2 47978  53.0531 221.4746 0000962  78.0793 282.0303 15.06397160132856
STARLINK-2325           
1 47979U 21024C   23227.09922203  .00006707  00000+0  46877-3 0  9992
2 47979  53.0540 160.6344 0001295  85.6498 274.4639 15.06397112133632
STARLINK-2312           
1 47980U 21024D   23227.05315966  .00018656  00000+0  12685-2 0  9997
2 47980  53.0546 140.9595 0001363 104.0919 256.0221 15.06386894133907
STARLINK-2303           
1 47981U 21024E   23227.68113158  .00001176  00000+0  97813-4 0  9993
2 47981  53.0535 223.0108 0001072  88.3636 271.7476 15.06400784132805
STARLINK-2317           
1 47982U 21024F   23227.06466125  .00006853  00000+0  47853-3 0  9996
2 47982  53.0539 155.7805 0000759  82.5156 277.5919 15.06395329133680
STARLINK-2308           
1 47985U 21024J   23227.06975143  .00003610  00000+0  26109-3 0  9993
2 47985  53.0537 160.9224 0001216  94.2121 265.9007 15.06405109133626
STARLINK-2305           
1 47989U 21024N   23227.05544978  .00008885  00000+0  61463-3 0  9995
2 47989  53.0552 135.8355 0001451  87.4238 272.6917 15.06399555133977
STARLINK-2307           
1 47990U 21024P   23227.00753118  .00009686  00000+0  66823-3 0  9995
2 47990  53.0536 136.0383 0001248  85.1932 274.9199 15.06401320133954
STARLINK-2279           
1 47991U 21024Q   23227.08540007  .00018788  00000+0  12771-2 0  9990
2 47991  53.0545 150.6980 0001479 100.6992 259.4164 15.06392888133751
STARLINK-2229           
1 47992U 21024R   23227.23883745  .00017905  00000+0  12183-2 0  9994
2 47992  53.0538 145.0874 0000582  81.0625 279.0430 15.06387093133850
STARLINK-2273           
1 47993U 21024S   23228.04234925  .00016448  00000+0  11199-2 0  9992
2 47993  53.0524 181.3927 0001277 102.4245 257.6887 15.06419950133425
STARLINK-2290           
1 47994U 21024T   23227.64841656  .00001038  00000+0  88573-4 0  9994
2 47994  53.0547 198.1604 0001248  93.1793 266.9338 15.06399621133157
STARLINK-2309           
1 47995U 21024U   23228.12163709  .00017459  00000+0  11875-2 0  9998
2 47995  53.0536 161.3526 0001379  96.1162 263.9984 15.06418206133716
STARLINK-2260           
1 47996U 21024V   23227.03567579  .00011487  00000+0  78873-3 0  9998
2 47996  53.0540  91.2179 0000545  70.0551 290.0496 15.06402670134600
STARLINK-2266           
1 47997U 21024W   23228.09441317  .00002310  00000+0  17389-3 0  9997
2 47997  53.0532 196.1583 0001269  92.2943 267.8191 15.06405724133225
STARLINK-2296           
1 47998U 21024X   23228.10227546  .00018658  00000+0  12672-2 0  9997
2 47998  53.0531 171.3616 0001407  98.3847 261.7302 15.06428165133569
STARLINK-2218           
1 47999U 21024Y   23227.05726964  .00019527  00000+0  13265-2 0  9994
2 47999  53.0548 145.8153 0001367  87.7237 272.3908 15.06390670133839
STARLINK-2270           
1 48000U 21024Z   23227.12043604  .00009469  00000+0  65396-3 0  9996
2 48000  53.0543 130.7370 0001185 121.4486 238.6619 15.06386113134058
STARLINK-2265           
1 48002U 21024AB  23228.07694647  .00020197  00000+0  13699-2 0  9991
2 48002  53.0545 146.5559 0001136 107.2436 252.8677 15.06426923133908
STARLINK-2263           
1 48003U 21024AC  23227.26831220 -.00000663  00000+0 -25635-4 0  9995
2 48003  53.0515 224.8684 0001139  82.1840 277.9278 15.06389701132735
STARLINK-2254           
1 48005U 21024AE  23228.04143409  .00016907  00000+0  11507-2 0  9996
2 48005  53.0523 191.3956 0001477  83.3890 276.7267 15.06416471133280
STARLINK-2271           
1 48008U 21024AH  23227.99671336  .00019495  00000+0  13230-2 0  9997
2 48008  53.0547 126.5982 0000535  98.1704 261.9345 15.06428783134182
STARLINK-2153           
1 48009U 21024AJ  23227.65716620 -.00000219  00000+0  41825-5 0  9996
2 48009  53.0531 203.1196 0001483  95.1024 265.0134 15.06400003133084
STARLINK-2226           
1 48010U 21024AK  23227.00660668  .00001736  00000+0  13540-3 0  9992
2 48010  53.0525 226.0393 0001343  83.8848 276.2294 15.06396627132698
STARLINK-2272           
1 48011U 21024AL  23228.09116230  .00005045  00000+0  35726-3 0  9991
2 48011  53.0534 201.1691 0001064  85.0783 275.0327 15.06406471133151
STARLINK-2243           
1 48013U 21024AN  23228.04741820  .00014417  00000+0  98427-3 0  9997
2 48013  53.0540 186.3695 0001342  98.3896 261.7245 15.06419455133358
STARLINK-2283           
1 48014U 21024AP  23228.06356445  .00011014  00000+0  75666-3 0  9995
2 48014  53.0540 151.4578 0000924  90.5919 269.5176 15.06422496133838
STARLINK-2284           
1 48016U 21024AR  23227.76086375  .00017722  00000+0  12051-2 0  9995
2 48016  53.0548 137.8600 0001570  98.2961 261.8206 15.06416515133993
STARLINK-2282           
1 48018U 21024AT  23227.41899776  .00000620  00000+0  60554-4 0  9998
2 48018  53.0530 209.3929 0001448  87.0797 273.0358 15.06395781132973
STARLINK-2285           
1 48019U 21024AU  23228.09809536  .00003718  00000+0  26827-3 0  9994
2 48019  53.0534 196.1428 0001466  99.1870 260.9285 15.06415175133224
STARLINK-2294           
1 48020U 21024AV  23227.07945909  .00018433  00000+0  12533-2 0  9996
2 48020  53.0537 156.1090 0000876  98.1748 261.9340 15.06394620133681
